2024-029B               
1 58962U 24029B   24047.42982983  .04428194  12314-4  49714-3 0  9994
2 58962  51.6549 198.6972 0014877  79.1947 329.6106 16.35828837   185
2024-028C               
1 58957U 24028C   24047.02160491 -.00000078  00000+0  00000+0 0  9994
2 58957  39.9928 358.2964 0008123   4.2842 355.7812 13.70331221   146
2024-028D               
1 58958U 24028D   24047.24022717 -.00000078  00000+0  00000+0 0  9997
2 58958  39.9912 357.2937 0005671 359.5438   0.5300 13.70381916   177
2024-028E               
1 58959U 24028E   24047.02153657 -.00000078  00000+0  00000+0 0  9992
2 58959  39.9925 358.2955 0008339   3.1841 356.8960 13.70424743   149
2024-028F               
1 58960U 24028F   24047.02146852 -.00000078  00000+0  00000+0 0  9993
2 58960  39.9936 358.2936 0008675   4.7302 355.3531 13.70512639   144
IM-1                    
1 58963U 24030A   24046.86640046 -.00014929  00000+0  00000+0 0  9994
2 58963  28.6500  67.7900 9686440 239.7630  18.8830  0.08992573    90
FALCON 9 R/B            
1 58964U 24030B   24046.27792824 -.00014702  00000+0  00000+0 0  9991
2 58964  28.5100  65.0800 9704700 239.9600   5.0000  0.08200507    02
