OBJECT_NAME,OBJECT_ID,EPOCH,MEAN_MOTION,ECCENTRICITY,INCLINATION,RA_OF_ASC_NODE,ARG_OF_PERICENTER,MEAN_ANOMALY,EPHEMERIS_TYPE,CLASSIFICATION_TYPE,NORAD_CAT_ID,ELEMENT_SET_NO,REV_AT_EPOCH,BSTAR,MEAN_MOTION_DOT,MEAN_MOTION_DDOT
2024-028C,2024-028C,2024-02-16T00:31:06.664224,13.70331221,0.0008123,39.9928,358.2964,4.2842,355.7812,0,U,58957,999,14,0,-7.8e-07,0
2024-028D,2024-028D,2024-02-16T05:45:55.627488,13.70381916,0.0005671,39.9912,357.2937,359.5438,0.53,0,U,58958,999,17,0,-7.8e-07,0
2024-028E,2024-028E,2024-02-16T00:31:00.759648,13.70424743,0.0008339,39.9925,358.2955,3.1841,356.896,0,U,58959,999,14,0,-7.8e-07,0
2024-028F,2024-028F,2024-02-16T00:30:54.880128,13.70512639,0.0008675,39.9936,358.2936,4.7302,355.3531,0,U,58960,999,14,0,-7.8e-07,0
2024-029B,2024-029B,2024-02-16T10:18:57.297312,16.35828837,0.0014877,51.6549,198.6972,79.1947,329.6106,0,U,58962,999,18,0.00049714,0.04428194,1.2314e-05
IM-1,2024-030A,2024-02-15T20:47:36.999744,0.08992573,0.968644,28.65,67.79,239.763,18.883,0,U,58963,999,9,0,-0.00014929,0
FALCON 9 R/B,2024-030B,2024-02-15T06:40:12.999936,0.08200507,0.97047,28.51,65.08,239.96,5,0,U,58964,999,0,0,-0.00014702,0
